GLOBALSTAR M084         
1 38040U 11080A   24120.56176535 -.00000070  00000+0  18684-3 0  9999
2 38040  52.0003 227.6982 0000617 154.0671 219.5369 12.62274132570435
GLOBALSTAR M080         
1 38041U 11080B   24120.61484089 -.00000074  00000+0  16725-3 0  9990
2 38041  52.0057 229.0001 0000840 154.9305 218.7099 12.62271893570706
GLOBALSTAR M082         
1 38042U 11080C   24121.41983340 -.00000087  00000+0  91166-4 0  9991
2 38042  52.0062 181.9541 0000500  37.4953 335.6198 12.62268983571543
GLOBALSTAR M092         
1 38043U 11080D   24120.68063613 -.00000057  00000+0  26342-3 0  9992
2 38043  52.0081 274.5554 0000522 120.2026 253.5075 12.62279539569733
GLOBALSTAR M090         
1 38044U 11080E   24120.98137831 -.00000084  00000+0  11131-3 0  9990
2 38044  51.9870 177.6280 0000364  71.6149 349.1281 12.62262619571472
GLOBALSTAR M086         
1 38045U 11080F   24121.47254064 -.00000094  00000+0  52877-4 0  9998
2 38045  51.9881 176.6515 0001227 125.5507 248.0605 12.62270318571541
GLOBALSTAR M097         
1 39072U 13005A   24120.86280998 -.00000110  00000+0 -36457-4 0  9991
2 39072  52.0036  92.6332 0000640  66.9998 293.0937 12.62262592518612
GLOBALSTAR M093         
1 39073U 13005B   24121.15290844 -.00000096  00000+0  45509-4 0  9996
2 39073  51.9804  85.7126 0000788  64.1848 295.9099 12.62263617518726
